{"type": "FeatureCollection", "features": [ {"type": "Feature", "properties": {"norad_id": 41556, "name": "ZIYUAN 3-02 (ZY 3-02)", "group": "resource", "lat": -74.27992419880042, "lon": 93.50364220775378, "alt_km": 505.67217125202933, "timestamp": "2025-12-17T21:39:45.366005+00:00", "meta": {"OBJECT_NAME": "ZIYUAN 3-02 (ZY 3-02)", "OBJECT_ID": "2016-033A", "EPOCH": "2025-12-17T15:40:53.849856", "MEAN_MOTION": 15.21125564, "ECCENTRICITY": 0.00108515, "INCLINATION": 97.4045, "RA_OF_ASC_NODE": 65.7399, "ARG_OF_PERICENTER": 228.0528, "MEAN_ANOMALY": 131.9784, "EPHEMERIS_TYPE": 0, "CLASSIFICATION_TYPE": "U", "NORAD_CAT_ID": 41556, "ELEMENT_SET_NO": 999, "REV_AT_EPOCH": 53038, "BSTAR": 0.00024847044, "MEAN_MOTION_DOT": 5.469e-05, "MEAN_MOTION_DDOT": 0}, "tle": {"line1": "1 41556U 16033A   25351.65340104  .00005469  00000+0  24847-3 0  9994", "line2": "2 41556  97.4045  65.7399 0010851 228.0528 131.9784 15.21125564530387"}}, "geometry": {"type": "Point", "coordinates": [93.50364220775378, -74.27992419880042]}}, {"type": "Feature", "properties": {"norad_id": 41599, "name": "CARTOSAT-2C", "group": "resource", "lat": -7.90448160871074, "lon": -131.94452814481912, "alt_km": 518.5017194137399, "timestamp": "2025-12-17T21:39:45.366014+00:00", "meta": {"OBJECT_NAME": "CARTOSAT-2C", "OBJECT_ID": "2016-040A", "EPOCH": "2025-12-17T16:05:47.594400", "MEAN_MOTION": 15.19158635, "ECCENTRICITY": 0.00113114, "INCLINATION": 97.4763, "RA_OF_ASC_NODE": 48.8707, "ARG_OF_PERICENTER": 47.451, "MEAN_ANOMALY": 312.7678, "EPHEMERIS_TYPE": 0, "CLASSIFICATION_TYPE": "U", "NORAD_CAT_ID": 41599, "ELEMENT_SET_NO": 999, "REV_AT_EPOCH": 52615, "BSTAR": 0.00017422247, "MEAN_MOTION_DOT": 3.599e-05, "MEAN_MOTION_DDOT": 0}, "tle": {"line1": "1 41599U 16040A   25351.67068975  .00003599  00000+0  17422-3 0  9997", "line2": "2 41599  97.4763  48.8707 0011311  47.4510 312.7678 15.19158635526155"}}, "geometry": {"type": "Point", "coordinates": [-131.94452814481912, -7.90448160871074]}}, {"type": "Feature", "properties": {"norad_id": 41601, "name": "SKYSAT-C1", "group": "resource", "lat": 47.91809268511855, "lon": -143.573794365845, "alt_km": 464.45861730749857, "timestamp": "2025-12-17T21:39:45.366023+00:00", "meta": {"OBJECT_NAME": "SKYSAT-C1", "OBJECT_ID": "2016-040C", "EPOCH": "2025-12-17T14:49:23.156832", "MEAN_MOTION": 15.32678311, "ECCENTRICITY": 0.00018094, "INCLINATION": 96.9823, "RA_OF_ASC_NODE": 28.3568, "ARG_OF_PERICENTER": 359.3867, "MEAN_ANOMALY": 0.7374, "EPHEMERIS_TYPE": 0, "CLASSIFICATION_TYPE": "U", "NORAD_CAT_ID": 41601, "ELEMENT_SET_NO": 999, "REV_AT_EPOCH": 53002, "BSTAR": 0.00024013946, "MEAN_MOTION_DOT": 7.507e-05, "MEAN_MOTION_DDOT": 0}, "tle": {"line1": "1 41601U 16040C   25351.61762913  .00007507  00000+0  24014-3 0  9996", "line2": "2 41601  96.9823  28.3568 0001809 359.3867   0.7374 15.32678311530020"}}, "geometry": {"type": "Point", "coordinates": [-143.573794365845, 47.91809268511855]}}, {"type": "Feature", "properties": {"norad_id": 41603, "name": "LAPAN-A3", "group": "resource", "lat": -73.85805915561295, "lon": 143.59729022119967, "alt_km": 475.0579141787284, "timestamp": "2025-12-17T21:39:45.366033+00:00", "meta": {"OBJECT_NAME": "LAPAN-A3", "OBJECT_ID": "2016-040E", "EPOCH": "2025-12-17T14:16:39.767808", "MEAN_MOTION": 15.31591586, "ECCENTRICITY": 0.00091672, "INCLINATION": 97.1423, "RA_OF_ASC_NODE": 348.9747, "ARG_OF_PERICENTER": 314.4675, "MEAN_ANOMALY": 45.5816, "EPHEMERIS_TYPE": 0, "CLASSIFICATION_TYPE": "U", "NORAD_CAT_ID": 41603, "ELEMENT_SET_NO": 999, "REV_AT_EPOCH": 52700, "BSTAR": 0.00011314493, "MEAN_MOTION_DOT": 3.381e-05, "MEAN_MOTION_DDOT": 0}, "tle": {"line1": "1 41603U 16040E   25351.59490472  .00003381  00000+0  11314-3 0  9998", "line2": "2 41603  97.1423 348.9747 0009167 314.4675  45.5816 15.31591586527004"}}, "geometry": {"type": "Point", "coordinates": [143.59729022119967, -73.85805915561295]}}, {"type": "Feature", "properties": {"norad_id": 41604, "name": "BIROS", "group": "resource", "lat": 80.35892017398784, "lon": -109.53070997691233, "alt_km": 288.27622070746474, "timestamp": "2025-12-17T21:39:45.366042+00:00", "meta": {"OBJECT_NAME": "BIROS", "OBJECT_ID": "2016-040F", "EPOCH": "2025-12-17T15:13:21.855072", "MEAN_MOTION": 15.91577007, "ECCENTRICITY": 0.0003703, "INCLINATION": 97.0677, "RA_OF_ASC_NODE": 23.2697, "ARG_OF_PERICENTER": 135.7681, "MEAN_ANOMALY": 224.389, "EPHEMERIS_TYPE": 0, "CLASSIFICATION_TYPE": "U", "NORAD_CAT_ID": 41604, "ELEMENT_SET_NO": 999, "REV_AT_EPOCH": 52950, "BSTAR": 0.00056136978, "MEAN_MOTION_DOT": 0.00180274, "MEAN_MOTION_DDOT": 1.3913944e-05}, "tle": {"line1": "1 41604U 16040F   25351.63428073  .00180274  13914-4  56137-3 0  9994", "line2": "2 41604  97.0677  23.2697 0003703 135.7681 224.3890 15.91577007529507"}}, "geometry": {"type": "Point", "coordinates": [-109.53070997691233, 80.35892017398784]}}, {"type": "Feature", "properties": {"norad_id": 41727, "name": "GAOFEN-3", "group": "resource", "lat": 4.945758482834855, "lon": 178.1435962533876, "alt_km": 753.902904978253, "timestamp": "2025-12-17T21:39:45.366051+00:00", "meta": {"OBJECT_NAME": "GAOFEN-3", "OBJECT_ID": "2016-049A", "EPOCH": "2025-12-17T14:11:38.796864", "MEAN_MOTION": 14.42215027, "ECCENTRICITY": 0.00012995, "INCLINATION": 98.4037, "RA_OF_ASC_NODE": 357.1042, "ARG_OF_PERICENTER": 58.3455, "MEAN_ANOMALY": 301.7862, "EPHEMERIS_TYPE": 0, "CLASSIFICATION_TYPE": "U", "NORAD_CAT_ID": 41727, "ELEMENT_SET_NO": 999, "REV_AT_EPOCH": 49247, "BSTAR": 5.0177076e-05, "MEAN_MOTION_DOT": 1.22e-06, "MEAN_MOTION_DDOT": 0}, "tle": {"line1": "1 41727U 16049A   25351.59142126  .00000122  00000+0  50177-4 0  9995", "line2": "2 41727  98.4037 357.1042 0001299  58.3455 301.7862 14.42215027492478"}}, "geometry": {"type": "Point", "coordinates": [178.1435962533876, 4.945758482834855]}}, {"type": "Feature", "properties": {"norad_id": 41771, "name": "SKYSAT-C4", "group": "resource", "lat": -65.61267731690064, "lon": -178.73889346961815, "alt_km": 446.8938633858161, "timestamp": "2025-12-17T21:39:45.366060+00:00", "meta": {"OBJECT_NAME": "SKYSAT-C4", "OBJECT_ID": "2016-058B", "EPOCH": "2025-12-17T14:22:08.091264", "MEAN_MOTION": 15.42388294, "ECCENTRICITY": 0.00019426, "INCLINATION": 96.9369, "RA_OF_ASC_NODE": 16.5506, "ARG_OF_PERICENTER": 131.7444, "MEAN_ANOMALY": 228.3971, "EPHEMERIS_TYPE": 0, "CLASSIFICATION_TYPE": "U", "NORAD_CAT_ID": 41771, "ELEMENT_SET_NO": 999, "REV_AT_EPOCH": 51742, "BSTAR": 0.00028161381, "MEAN_MOTION_DOT": 0.00012085, "MEAN_MOTION_DDOT": 0}, "tle": {"line1": "1 41771U 16058B   25351.59870476  .00012085  00000+0  28161-3 0  9998", "line2": "2 41771  96.9369  16.5506 0001942 131.7444 228.3971 15.42388294517424"}}, "geometry": {"type": "Point", "coordinates": [-178.73889346961815, -65.61267731690064]}}, {"type": "Feature", "properties": {"norad_id": 41772, "name": "SKYSAT-C5", "group": "resource", "lat": 9.456832344241061, "lon": 34.25396096192787, "alt_km": 466.2562362330218, "timestamp": "2025-12-17T21:39:45.366069+00:00", "meta": {"OBJECT_NAME": "SKYSAT-C5", "OBJECT_ID": "2016-058C", "EPOCH": "2025-12-17T15:21:31.669632", "MEAN_MOTION": 15.339631, "ECCENTRICITY": 0.0003766, "INCLINATION": 97.0757, "RA_OF_ASC_NODE": 35.1878, "ARG_OF_PERICENTER": 270.2229, "MEAN_ANOMALY": 89.8583, "EPHEMERIS_TYPE": 0, "CLASSIFICATION_TYPE": "U", "NORAD_CAT_ID": 41772, "ELEMENT_SET_NO": 999, "REV_AT_EPOCH": 51591, "BSTAR": 0.00022831886, "MEAN_MOTION_DOT": 7.429e-05, "MEAN_MOTION_DDOT": 0}, "tle": {"line1": "1 41772U 16058C   25351.63994988  .00007429  00000+0  22832-3 0  9994", "line2": "2 41772  97.0757  35.1878 0003766 270.2229  89.8583 15.33963100515919"}}, "geometry": {"type": "Point", "coordinates": [34.25396096192787, 9.456832344241061]}}, {"type": "Feature", "properties": {"norad_id": 41773, "name": "SKYSAT-C2", "group": "resource", "lat": 76.60023142723816, "lon": -15.01524303216614, "alt_km": 445.2873369636727, "timestamp": "2025-12-17T21:39:45.366078+00:00", "meta": {"OBJECT_NAME": "SKYSAT-C2", "OBJECT_ID": "2016-058D", "EPOCH": "2025-12-17T15:04:25.946976", "MEAN_MOTION": 15.37380675, "ECCENTRICITY": 0.00037117, "INCLINATION": 97.0356, "RA_OF_ASC_NODE": 15.9481, "ARG_OF_PERICENTER": 21.9124, "MEAN_ANOMALY": 338.228, "EPHEMERIS_TYPE": 0, "CLASSIFICATION_TYPE": "U", "NORAD_CAT_ID": 41773, "ELEMENT_SET_NO": 999, "REV_AT_EPOCH": 51711, "BSTAR": 0.0002641066, "MEAN_MOTION_DOT": 9.604e-05, "MEAN_MOTION_DDOT": 0}, "tle": {"line1": "1 41773U 16058D   25351.62807809  .00009604  00000+0  26411-3 0  9993", "line2": "2 41773  97.0356  15.9481 0003711  21.9124 338.2280 15.37380675517119"}}, "geometry": {"type": "Point", "coordinates": [-15.01524303216614, 76.60023142723816]}}, {"type": "Feature", "properties": {"norad_id": 41774, "name": "SKYSAT-C3", "group": "resource", "lat": 39.53218691575479, "lon": 19.648436981137934, "alt_km": 429.19613261322775, "timestamp": "2025-12-17T21:39:45.366087+00:00", "meta": {"OBJECT_NAME": "SKYSAT-C3", "OBJECT_ID": "2016-058E", "EPOCH": "2025-12-17T15:16:15.950208", "MEAN_MOTION": 15.44569535, "ECCENTRICITY": 0.00018374, "INCLINATION": 96.9293, "RA_OF_ASC_NODE": 25.1549, "ARG_OF_PERICENTER": 107.9075, "MEAN_ANOMALY": 252.2375, "EPHEMERIS_TYPE": 0, "CLASSIFICATION_TYPE": "U", "NORAD_CAT_ID": 41774, "ELEMENT_SET_NO": 999, "REV_AT_EPOCH": 51801, "BSTAR": 0.00034182362, "MEAN_MOTION_DOT": 0.00015812, "MEAN_MOTION_DDOT": 0}, "tle": {"line1": "1 41774U 16058E   25351.63629572  .00015812  00000+0  34182-3 0  9996", "line2": "2 41774  96.9293  25.1549 0001837 107.9075 252.2375 15.44569535518015"}}, "geometry": {"type": "Point", "coordinates": [19.648436981137934, 39.53218691575479]}}]}